{"type": "FeatureCollection", "features": [{"type": "Feature", "properties": {}, "geometry": {"type": "Polygon", "coordinates": [[[-95.3868460233065, 29.82230905362036], [-95.39972651701011, 29.822105293519652], [-95.40012807829795, 29.821455773533003], [-95.4000485810132, 29.820133033954043], [-95.40032016475888, 29.819590073660887], [-95.39996520324482, 29.818920240040146], [-95.40022125519121, 29.81881706472923], [-95.39997296832824, 29.81870034756445], [-95.40022901971466, 29.818597172232167], [-95.3999807333782, 29.818480455073928], [-95.39999238089031, 29.81815061631025], [-95.40024454866112, 29.818157387193487], [-95.40003508779017, 29.81694120722408], [-95.40054718108561, 29.816734855725826], [-95.40069655330618, 29.816078562685576], [-95.4002271674492, 29.815075504974963], [-95.39997112490288, 29.81517868040847], [-95.39989551697943, 29.8137459918586], [-95.40342959487566, 29.813730797311326], [-95.40338305086146, 29.815050155077152], [-95.40437618178657, 29.815516996216246], [-95.40501821664407, 29.815204062465778], [-95.40518694162094, 29.81399803148581], [-95.40882774243555, 29.814535807995135], [-95.40947362957645, 29.814112906190253], [-95.41061221359999, 29.81403334456835], [-95.41075764638856, 29.81348698654154], [-95.4135275069833, 29.813671164472815], [-95.41366132094498, 29.813454643657487], [-95.41390574338344, 29.813681282466007], [-95.41391347801024, 29.81346138885387], [-95.41454773744121, 29.81336830294151], [-95.41497623284985, 29.81194910881039], [-95.41486948723227, 29.811396002793305], [-95.41461733521037, 29.8113892593883], [-95.41467146494126, 29.809850002464895], [-95.41530570122143, 29.809756912877358], [-95.41546656464719, 29.808770761084624], [-95.41510767550061, 29.80821091244502], [-95.41460338720776, 29.80819742603769], [-95.41485317423172, 29.804682491805647], [-95.41457549382216, 29.801813750317418], [-95.41495755209343, 29.801713918189257], [-95.4151029440401, 29.80116755348083], [-95.41499234336389, 29.800724393058296], [-95.41461802096619, 29.800604330827483], [-95.41464508316913, 29.799834700013054], [-95.41439295974288, 29.79982795615188], [-95.41457618393966, 29.791028791486895], [-95.4164708111287, 29.79096940889577], [-95.4185982307532, 29.79146647425649], [-95.41910629773648, 29.79136999807221], [-95.41924779202141, 29.790933574921997], [-95.42050058246672, 29.791187139413996], [-95.42101636386194, 29.79087076054242], [-95.42403773121762, 29.791061454282985], [-95.4240454422882, 29.79084155863717], [-95.42442359507957, 29.79085164706707], [-95.42504228653738, 29.791198302293125], [-95.42530209770982, 29.79098513044837], [-95.42757487124884, 29.790935675838004], [-95.42756716777944, 29.791155571677685], [-95.42819357392506, 29.791282316509946], [-95.42820127605368, 29.79106242064291], [-95.42896143440755, 29.790972625032293], [-95.43047020129927, 29.79112286489109], [-95.43060394971808, 29.790906325766112], [-95.432498565282, 29.79084671669664], [-95.44574548367048, 29.790868497379762], [-95.44602057807157, 29.790215491578937], [-95.44579146874199, 29.789549115857934], [-95.44467235173497, 29.78907923431734], [-95.44283913942355, 29.78737984040279], [-95.44171622348091, 29.78701988235974], [-95.44162470462808, 29.78602699977923], [-95.44075006068184, 29.785783674689203], [-95.44005519880496, 29.784004413335285], [-95.4384128007673, 29.78407082846832], [-95.4372937778462, 29.783600884560737], [-95.43730530073337, 29.783271039251876], [-95.43944417728461, 29.78343792968324], [-95.43972696862649, 29.78256503834583], [-95.43937187721622, 29.781895301845342], [-95.44028869915016, 29.780929201832176], [-95.4404377632749, 29.780272857820762], [-95.44095342765388, 29.77995640130995], [-95.44189706806809, 29.778220648932148], [-95.44542990883174, 29.778204347901205], [-95.44796594771347, 29.777831386612633], [-95.44823716380925, 29.777288322765475], [-95.44801572734643, 29.776402050436378], [-95.44902782659096, 29.776318821442494], [-95.44930286075174, 29.775665806199065], [-95.44924955579582, 29.773573434937596], [-95.45089560372166, 29.77339693778962], [-95.45088795183999, 29.773616836052298], [-95.45164030996064, 29.773746809728646], [-95.45164796023047, 29.773526911431794], [-95.4535384176426, 29.773576954042074], [-95.45354606380869, 29.77335705562792], [-95.45595210215527, 29.77309055668735], [-95.45622326313952, 29.772547475972793], [-95.45603997083185, 29.770561722160874], [-95.45666628589224, 29.770688334752275], [-95.45832754570021, 29.77007194865414], [-95.45848411313101, 29.769195683663227], [-95.4581365810247, 29.768306095341096], [-95.45751027876312, 29.768179489528656], [-95.45751791596457, 29.76795959055489], [-95.45713220674413, 29.768169494318627], [-95.45717039649253, 29.767069999411785], [-95.45793035057943, 29.766980039028876], [-95.45820148479511, 29.766436953382968], [-95.45788069132846, 29.764777716520488], [-95.45803725447318, 29.763901450742324], [-95.45768592606849, 29.763121809570393], [-95.45796468715244, 29.762358824485762], [-95.45860240590781, 29.76215557931066], [-95.45888497437286, 29.761282642382753], [-95.45889254897723, 29.75743106928138], [-95.45852978507784, 29.756981278519778], [-95.45790736959346, 29.756744724268014], [-95.45726968326898, 29.756947966431845], [-95.4571322173456, 29.75727448401658], [-95.45586829240355, 29.757351108567313], [-95.45573082145287, 29.757677624679953], [-95.45535278851831, 29.757667624406174], [-95.45373758033246, 29.75696457928383], [-95.45352760754277, 29.755748461703853], [-95.45214151414201, 29.7557117660057], [-95.45214916197979, 29.75549186656346], [-95.45140076251442, 29.75525194531246], [-95.44888060709046, 29.755185175193922], [-95.44891505354464, 29.75419562827425], [-95.4486630406252, 29.754188948718003], [-95.44855617284281, 29.75363586040349], [-95.44742212129177, 29.753605795624868], [-95.44701729867415, 29.754365419288156], [-95.44681507046045, 29.7529293909679], [-95.44656306080559, 29.75292270745946], [-95.44633403166132, 29.752256325579186], [-95.44380628798369, 29.75240935928227], [-95.44318776796149, 29.752062786759016], [-95.44230574263631, 29.75203936852639], [-95.44139687015912, 29.752785591107585], [-95.44014389113381, 29.75616389775845], [-95.43849042528457, 29.75656016226498], [-95.4384443606768, 29.75787955370049], [-95.43915436883685, 29.759219039739996], [-95.43826844357426, 29.75930554425286], [-95.43802793653977, 29.75896899704783], [-95.43590494135098, 29.758362285976013], [-95.4359164658777, 29.75803243842375], [-95.43529409641575, 29.75779577921796], [-95.43530562285301, 29.757465931665184], [-95.4348054253509, 29.757342571740644], [-95.43482079595525, 29.75690277499613], [-95.43445045401286, 29.756672817371197], [-95.43463026270759, 29.755136881521434], [-95.43537477991184, 29.755486845689823], [-95.43638668201912, 29.755403711718373], [-95.43678390701973, 29.754864018982666], [-95.43844886791403, 29.754137927223795], [-95.43932707281652, 29.754271320220422], [-95.44048798438959, 29.753531807375804], [-95.44198141821005, 29.750490036423965], [-95.4423331087736, 29.74763803593386], [-95.44212712288945, 29.746311946496142], [-95.44150481009508, 29.746075315153615], [-95.43707958998175, 29.74639790892247], [-95.43714870150897, 29.74441881440959], [-95.43662625210476, 29.74132346605995], [-95.43525188503938, 29.740956746048745], [-95.43474024262835, 29.741163234529452], [-95.43474792647581, 29.740943335011135], [-95.4339958316059, 29.74081326515791], [-95.43398814614439, 29.741033164641035], [-95.43271671712404, 29.74132947070717], [-95.43273593763436, 29.74077972220034], [-95.43350340367836, 29.74047000018793], [-95.43351877657636, 29.740030201195513], [-95.43414487641874, 29.740156920249504], [-95.43491233348493, 29.739847190115857], [-95.43559604838507, 29.738324655063494], [-95.43648563336156, 29.738128217784645], [-95.43702029307772, 29.737262022899937], [-95.43778004260274, 29.737172175988064], [-95.43778771958605, 29.736952276055383], [-95.4391927375887, 29.73643937037159], [-95.43959754579822, 29.735679765970144], [-95.43997933172406, 29.735579860691626], [-95.44013216619658, 29.73481355809249], [-95.44139582331003, 29.73473708143618], [-95.44143800236365, 29.73352762969744], [-95.44207557327665, 29.733324461391213], [-95.44235820148052, 29.73245155161045], [-95.44199943224051, 29.731891762361617], [-95.44073964598917, 29.731858294562596], [-95.44046851185165, 29.732401350537874], [-95.44011358895405, 29.73173160603062], [-95.43960967539441, 29.73171821323985], [-95.44012893199151, 29.731291805232853], [-95.44028175890438, 29.73052550156923], [-95.43992300786005, 29.729965706467418], [-95.43917098743844, 29.72983566526477], [-95.43982388380218, 29.72919270652864], [-95.43970941689886, 29.728859507448735], [-95.43996136659744, 29.728866203898964], [-95.43961029553836, 29.728086507120167], [-95.4401141911316, 29.728099899922665], [-95.44037764504107, 29.727776744674266], [-95.44074789576459, 29.728006687940855], [-95.44062959210538, 29.72778343987014], [-95.44113348633334, 29.727796828840713], [-95.4416527165613, 29.727370414476926], [-95.44240855508978, 29.727390491453228], [-95.44241622134368, 29.727170590671324], [-95.44632904119379, 29.727054352563595], [-95.44633669895875, 29.726834451537904], [-95.4477338796572, 29.72654135595766], [-95.4482112942497, 29.723692661733946], [-95.44795935680558, 29.723685980785973], [-95.44787165908514, 29.72258313344253], [-95.44750523943914, 29.72224325884021], [-95.44784136899658, 29.71983102459616], [-95.44755150509084, 29.717292133671723], [-95.44692552910294, 29.71716547646458], [-95.4469331848369, 29.716945574820517], [-95.44616593685552, 29.71725537570541], [-95.44623829687606, 29.718798028773563], [-95.4450854840859, 29.719317697597297], [-95.444684612223, 29.71996737126309], [-95.4449097291599, 29.720743713048595], [-95.4456578604035, 29.72098367303774], [-95.44604341427308, 29.720773799413184], [-95.44601661132992, 29.721543454141997], [-95.44637536619918, 29.722103234201317], [-95.44610428807167, 29.722646303008805], [-95.44599746612255, 29.722093207419043], [-95.4452454960655, 29.721963200029148], [-95.44447820515911, 29.722272990834636], [-95.44413095330484, 29.721383353891657], [-95.44312705977602, 29.721246645962474], [-95.44307390577058, 29.719154239014802], [-95.44195173951026, 29.71879427563901], [-95.44264287290378, 29.717051794615013], [-95.44241011596982, 29.716495349678308], [-95.4417841512708, 29.716368668422405], [-95.44331482414182, 29.715859063027516], [-95.44346377240437, 29.715202703329606], [-95.44309739401035, 29.714862815999584], [-95.44312804910862, 29.71398320967686], [-95.44357823624208, 29.715535900425476], [-95.44457441338706, 29.71589250677064], [-95.44520803800147, 29.715799273393205], [-95.44535697397878, 29.715142911580774], [-95.44647911204956, 29.71550284678865], [-95.44738378599233, 29.71486653249508], [-95.44752887947492, 29.714320119022666], [-95.44704418926513, 29.713756999482523], [-95.4470748099535, 29.71287739199988], [-95.4474603302253, 29.712667513845087], [-95.44762072790704, 29.711681296000137], [-95.44715135936107, 29.710678372363084], [-95.44652542450804, 29.71055171306148], [-95.44653308060859, 29.710331811053145], [-95.4457658812192, 29.710641610190077], [-95.44570461805492, 29.71240082539063], [-95.44483825524854, 29.711937619806093], [-95.444830595369, 29.712157521624047], [-95.44305573960463, 29.712440552945584], [-95.44278850167557, 29.71287366561452], [-95.44286897560902, 29.71056469752725], [-95.44250261587871, 29.71022480815068], [-95.44253710703407, 29.709235249956166], [-95.44217841856701, 29.70867545769577], [-95.4402891700314, 29.708625253749734], [-95.43988063929207, 29.70949481660496], [-95.44020480426654, 29.711044172285206], [-95.43970482845839, 29.71092082896466], [-95.43972017012615, 29.710481025756636], [-95.43836155540946, 29.709674531259072], [-95.437472222503, 29.70987098248519], [-95.43732708141943, 29.710417385712816], [-95.43707517751896, 29.71041068427409], [-95.43607908022753, 29.710054021646513], [-95.43609443741681, 29.70961421875208], [-95.43560599301254, 29.709161007871117], [-95.43434264878742, 29.709237430441004], [-95.43380811337947, 29.710103621172657], [-95.43375432783346, 29.71164292995536], [-95.43425429998058, 29.711766295459263], [-95.43436488859544, 29.712209451335312], [-95.43537252147377, 29.71223627461905], [-95.43533795970978, 29.713225830182264], [-95.43607833431054, 29.71368574533098], [-95.43544471448813, 29.713778935583203], [-95.43503996233983, 29.714538531923072], [-95.43389098249615, 29.714948154473728], [-95.43351695245542, 29.71482814195712], [-95.43355921680362, 29.71361868621003], [-95.43330730523533, 29.713611977692715], [-95.43320056223645, 29.713058870563575], [-95.43207465427173, 29.71280877442864], [-95.43156699108236, 29.712905301840657], [-95.43142565846773, 29.71334174774528], [-95.4306776168718, 29.713101707795474], [-95.43068530737195, 29.712881806842077], [-95.42967382301136, 29.71296489876027], [-95.42889116376058, 29.713714402777843], [-95.42911614652222, 29.71449077239595], [-95.42949017013974, 29.71461079720953], [-95.42908152322137, 29.715480325752765], [-95.42933343913127, 29.71548704221219], [-95.42930266447226, 29.716366645025467], [-95.42966900224734, 29.716706569942275], [-95.42927958312924, 29.71702634699522], [-95.42912669370652, 29.717792640897027], [-95.42937861533754, 29.71779935726713], [-95.42946610873135, 29.718902218126356], [-95.43046996081759, 29.71903902849807], [-95.43043534912182, 29.720028581001145], [-95.43005361212094, 29.720128459506043], [-95.42991226300082, 29.720564902972832], [-95.4300113034502, 29.72133791204395], [-95.43037766146783, 29.721677834569558], [-95.43150750798975, 29.721817994128717], [-95.4318623397622, 29.72248776322813], [-95.43273257670022, 29.722841101168587], [-95.43283548409089, 29.72350415745326], [-95.43309126313751, 29.723400916600955], [-95.43320570225875, 29.723734121826485], [-95.43220180022949, 29.723597332126797], [-95.43197292961061, 29.722930919808423], [-95.43109884937886, 29.72268752714779], [-95.43086614262803, 29.722131062996922], [-95.42974398671952, 29.721770997664418], [-95.42973629351623, 29.721990898041334], [-95.42809103920837, 29.722167137863988], [-95.42767465228417, 29.72325656056616], [-95.42691884733945, 29.723236400454365], [-95.42677748047569, 29.723672840250277], [-95.42639957651039, 29.723662758198117], [-95.42683907728606, 29.7219136390113], [-95.42649198070832, 29.72102395627007], [-95.42674391015676, 29.72103067758796], [-95.42689297274993, 29.720374337221813], [-95.42653048104454, 29.719924454896], [-95.42656898054965, 29.718824953186775], [-95.42570265013056, 29.718361624656687], [-95.42480936518027, 29.71866794154172], [-95.42466414364317, 29.71921432977056], [-95.42441221882395, 29.719207604538628], [-95.42498810810969, 29.720763718251195], [-95.42497270128904, 29.721203518565048], [-95.42446498953501, 29.721300018851494], [-95.42431205748011, 29.72206630638298], [-95.42456013716257, 29.72218298183039], [-95.42430820500847, 29.722176256408595], [-95.42429664754363, 29.722506106465342], [-95.4245293192634, 29.723062581970698], [-95.42502933628671, 29.72318598152205], [-95.42513604552914, 29.7237390936627], [-95.42601397123893, 29.72387257513223], [-95.42627360853858, 29.7236593972772], [-95.42599471764102, 29.724422325203733], [-95.42473502903756, 29.724388706866204], [-95.42386480662148, 29.72403531712975], [-95.42309743509634, 29.724344985321956], [-95.42299844418989, 29.723571971764166], [-95.42162822110701, 29.72309516029408], [-95.42062048444092, 29.72306823372043], [-95.41958188742804, 29.723920898367783], [-95.41934924077518, 29.723364414398993], [-95.41885308816161, 29.723131043819066], [-95.41901377927505, 29.72214486299765], [-95.41876570603837, 29.722028177279665], [-95.41915903529694, 29.721598481321614], [-95.41880043177382, 29.721038628321477], [-95.4190755092361, 29.720385664602876], [-95.41885058997843, 29.71960927934656], [-95.4190305657492, 29.71807334767141], [-95.42002668175554, 29.718430136291115], [-95.42001511085229, 29.718759986310452], [-95.4210035251672, 29.71933666757657], [-95.42101123702105, 29.719116767544197], [-95.4216449032437, 29.719023645684427], [-95.42196621534802, 29.71705127472269], [-95.42234409434825, 29.717061369297898], [-95.42249317948041, 29.716405033128588], [-95.42274509724228, 29.716411761974214], [-95.42251245045892, 29.715855282377717], [-95.42302013692705, 29.715758789350676], [-95.42303555135376, 29.71531898862027], [-95.42326819976982, 29.71587546738801], [-95.42377203281013, 29.715888921693097], [-95.42373735712282, 29.71687847330115], [-95.42523346659722, 29.717358626024335], [-95.4258671180236, 29.717265484152673], [-95.42627579953937, 29.71639596582663], [-95.42652771752851, 29.71640268755989], [-95.42641715845437, 29.71595952570907], [-95.42704310152513, 29.716086278775094], [-95.42806616358257, 29.715673355831193], [-95.42822290577786, 29.71479711235407], [-95.42797099164726, 29.714790393805174], [-95.42788351797039, 29.713687530758055], [-95.42750949963548, 29.713567501429438], [-95.42739893936738, 29.713124340053998], [-95.42652110446743, 29.712990867271113], [-95.42574997362475, 29.71341050191239], [-95.42582202175774, 29.714953167581317], [-95.42434135343048, 29.71403322008971], [-95.42370772071362, 29.714126354824813], [-95.42331443949087, 29.71455606499238], [-95.42306637980788, 29.714439386999466], [-95.42332214599459, 29.714336164546445], [-95.42309335426853, 29.713669735406384], [-95.42327710878926, 29.71202384531125], [-95.42339535612068, 29.712247109646107], [-95.4239030237717, 29.712150613181688], [-95.42389531868714, 29.71237051378883], [-95.42465874587567, 29.712170790369246], [-95.42481551198917, 29.711294550060998], [-95.4260865891515, 29.71099831657347], [-95.42623179134823, 29.71045192560732], [-95.42634234363913, 29.7108950882609], [-95.42696440631323, 29.71113179227498], [-95.42797587468364, 29.71104872077284], [-95.42823932300041, 29.71072558791594], [-95.42827395286565, 29.709736033525676], [-95.42765189567139, 29.709499335504304], [-95.42828934370094, 29.709296231488263], [-95.42817878467584, 29.708853070253948], [-95.42843453165818, 29.70874983788904], [-95.42818263246647, 29.708743119726588], [-95.42807592239068, 29.70819000779887], [-95.42732022913866, 29.70816984986448], [-95.42732792651314, 29.70794994881596], [-95.42821726220846, 29.707753564831467], [-95.42835475326844, 29.70742707223851], [-95.4288585452, 29.707440507447515], [-95.42884700413912, 29.70777035919143], [-95.42946905355322, 29.70800705177227], [-95.4301026429442, 29.707913889640185], [-95.43024012817854, 29.707587395126406], [-95.43162171514066, 29.707734268551317], [-95.43188129957865, 29.707521078914763], [-95.43177072685577, 29.707077920437516], [-95.43202262216678, 29.707084631856475], [-95.43177457070293, 29.706967969755627], [-95.43203030930965, 29.706864730475367], [-95.43178225837241, 29.70674806838197], [-95.43206874452622, 29.70576522337164], [-95.43308784021, 29.705462211694442], [-95.43350409652822, 29.70437276701664], [-95.43400787403543, 29.704386182872643], [-95.43400019134786, 29.70460608451074], [-95.43714881056225, 29.704689890862753], [-95.43715648646032, 29.704469989049358], [-95.43842360602933, 29.704283588901657], [-95.44068293852251, 29.704563764107245], [-95.44119821866745, 29.70424729988477], [-95.44131649624349, 29.70447054885726], [-95.44459872205198, 29.70433762484236], [-95.44493826075094, 29.70544716682495], [-95.44657173246485, 29.705600572817076], [-95.44721294549846, 29.70528742740201], [-95.44710230851345, 29.704844281324785], [-95.44735419930971, 29.704850963920048], [-95.44715971590693, 29.70319501320655], [-95.44553011072504, 29.702931663093135], [-95.44554542604423, 29.70249185829212], [-95.444923372961, 29.702255240016978], [-95.44390817514117, 29.70244839082125], [-95.44328612612567, 29.702211764940564], [-95.44252281008372, 29.702411595023758], [-95.44237770671245, 29.702958004796628], [-95.44137399708357, 29.70282128305379], [-95.4408587246966, 29.703137748070766], [-95.4398588503046, 29.702891063922053], [-95.43720637899017, 29.703040626941206], [-95.43633629565925, 29.702687316190982], [-95.43380208395314, 29.70306006516055], [-95.43381744991711, 29.70262026171497], [-95.43282144019348, 29.70226357412849], [-95.43153895979178, 29.702889724590865], [-95.4314014850587, 29.703216220841405], [-95.43076792606854, 29.703309389230284], [-95.4306304482984, 29.703635884653682], [-95.43000073162864, 29.70361909865772], [-95.42999304035015, 29.703839000110715], [-95.42797794405638, 29.7037852649187], [-95.42787508819463, 29.70312220142264], [-95.42700118769228, 29.702878780739194], [-95.42623013536145, 29.70329841926247], [-95.42621473654334, 29.703738221759952], [-95.42534468537504, 29.70338483968323], [-95.42533698406497, 29.703604740882756], [-95.42471111979857, 29.703477979423003], [-95.42419579233903, 29.703794380291868], [-95.42395161000938, 29.703567753041018], [-95.42394390567877, 29.703787654149963], [-95.42331033631694, 29.703880787255095], [-95.42295177234344, 29.703320942727657], [-95.42219997025745, 29.70319080534435], [-95.42117700976823, 29.70360368485421], [-95.42103950086678, 29.70393017041004], [-95.41978392392915, 29.70378655486182], [-95.41952432369413, 29.70399972126719], [-95.41953203757967, 29.70377982042437], [-95.41915420811787, 29.703769717880085], [-95.41914649341761, 29.703989618701783], [-95.41839083308939, 29.70396941037396], [-95.41835500622808, 29.697805446922022], [-95.4180080658564, 29.696915736516264], [-95.41272268268938, 29.696664193048175], [-95.41260834095628, 29.6963309679378], [-95.41210847076431, 29.69620752114929], [-95.4091965298725, 29.69656968175827], [-95.40854364930546, 29.69721249681919], [-95.40836742109074, 29.698638472633636], [-95.40824148465309, 29.69863509473609], [-95.40810007192027, 29.699071517672245], [-95.4073367104301, 29.69927114741938], [-95.40705387423657, 29.70014399103736], [-95.40671476577502, 29.699034351526983], [-95.40646289203902, 29.69902759250681], [-95.40684844353943, 29.69881783046066], [-95.4069976017933, 29.698161508371516], [-95.40674573019619, 29.698154749881482], [-95.40663914758076, 29.697601619341828], [-95.40613540723558, 29.697588100538088], [-95.40666237110979, 29.69694191789342], [-95.40619734466705, 29.69582889664065], [-95.4063426318985, 29.695282525055628], [-95.40609076746141, 29.69527576532866], [-95.40598419141288, 29.69472263385208], [-95.4047481118592, 29.6940291254884], [-95.40373679351906, 29.694112021986555], [-95.40346168869371, 29.694764958743775], [-95.40282815672292, 29.6948579951954], [-95.40279328479241, 29.69584754686592], [-95.40316333465705, 29.696077595934018], [-95.40253754422199, 29.69595073062847], [-95.40252979425233, 29.69617063094315], [-95.4018962526907, 29.6962636629536], [-95.40186137122865, 29.69725321401923], [-95.40077060718973, 29.69601330263003], [-95.40027075290051, 29.695889811656087], [-95.39963721102247, 29.69598283298894], [-95.39962945479101, 29.696202733134175], [-95.39863362752108, 29.695845790763308], [-95.39811825769765, 29.69616209194294], [-95.39509198411285, 29.696190708352646], [-95.39481293493299, 29.69695357691275], [-95.39242407809694, 29.696779184621246], [-95.3921294622577, 29.69798184673864], [-95.39248783807433, 29.698541774539493], [-95.39210614439662, 29.69864154548767], [-95.39169724250866, 29.699510963639668], [-95.3910636702889, 29.699603944336047], [-95.3910481202338, 29.700043743204997], [-95.38977318900041, 29.70044959476371], [-95.38915127797772, 29.700212717399594], [-95.38838787082138, 29.700412239104704], [-95.38776596324742, 29.700175355306616], [-95.3876322431519, 29.70039185725218], [-95.38726999591249, 29.6999418663373], [-95.38730502000556, 29.69895231976753], [-95.38693499550885, 29.698722227063413], [-95.38328675574314, 29.69851368610436], [-95.38318419604197, 29.697850587412045], [-95.38218841028744, 29.69749352293834], [-95.38091737405895, 29.697789340964864], [-95.38081483050654, 29.69712624033229], [-95.37906736153096, 29.69663877850948], [-95.37883109789169, 29.69619216965869], [-95.37833126932381, 29.69606859682175], [-95.37657212142634, 29.695910950706566], [-95.37628903102942, 29.696783730116326], [-95.3756632697351, 29.696656739285515], [-95.37489205312941, 29.697076082968536], [-95.37478564456637, 29.69652292694032], [-95.37542311673006, 29.696320073797928], [-95.37556856967453, 29.695773735672375], [-95.3753167060735, 29.695766918082583], [-95.3752102965723, 29.6952137622029], [-95.37471047719532, 29.695090175823356], [-95.37381724305254, 29.69539615458176], [-95.3737820891931, 29.696385698544052], [-95.37415207550059, 29.69661582772138], [-95.37313289316, 29.696918391729028], [-95.37200340318306, 29.69677773899669], [-95.3717749865563, 29.696111219180874], [-95.37003930833671, 29.695293791603614], [-95.36902794925204, 29.695376426019884], [-95.36851248991599, 29.695692613326166], [-95.36862277514021, 29.69613582528865], [-95.36825671503036, 29.695795731640942], [-95.36725317561405, 29.695658454304024], [-95.3671194178628, 29.695874936027113], [-95.36712724423029, 29.695655037750644], [-95.36650150128806, 29.695528004082494], [-95.36649367357988, 29.695747902329764], [-95.36586010177463, 29.69584076390999], [-95.36558474957864, 29.69649362255952], [-95.36567936378707, 29.697376633066106], [-95.36617135486941, 29.69772015118536], [-95.36540792140424, 29.697919542057843], [-95.3652545803075, 29.698685766851277], [-95.36572308735839, 29.69968898038005], [-95.36521151135904, 29.69989520565172], [-95.36532178677302, 29.70033841984548], [-95.36494397548853, 29.700328164396222], [-95.36521934215298, 29.699675307717516], [-95.36500271019926, 29.69867892987398], [-95.36324353786878, 29.698521108827954], [-95.36301125693575, 29.697964523334242], [-95.36238550494234, 29.697837470515612], [-95.36187785041567, 29.697933734219532], [-95.3613388388282, 29.698909587135148], [-95.36087429853774, 29.69779640917057], [-95.36037056334021, 29.697782718266865], [-95.36064595242884, 29.697129870554114], [-95.36028775657186, 29.696569857370612], [-95.3607914857621, 29.696583548590382], [-95.36148777548938, 29.69473152736533], [-95.36125551278582, 29.69417493827608], [-95.36051169758701, 29.693824556352038], [-95.36050385708317, 29.69404445434716], [-95.35987029041185, 29.694137287637133], [-95.35971299221832, 29.695013455793475], [-95.35933127968062, 29.695113133441062], [-95.35854782703206, 29.692340439316006], [-95.3588506667652, 29.690917951258644], [-95.35985806901489, 29.690945342655457], [-95.36026328780603, 29.690185968873738], [-95.36015696585055, 29.689632800234218], [-95.3595312685803, 29.689505733804232], [-95.35941710883421, 29.6891724626955], [-95.35980271986013, 29.688962835533676], [-95.36008592973235, 29.68809008919612], [-95.35998353149792, 29.68742697094991], [-95.35960968959188, 29.6873067512494], [-95.35965281970563, 29.68609731029265], [-95.35915306391584, 29.68597366556827], [-95.35918835623933, 29.684984122776495], [-95.35843677097614, 29.684853626934142], [-95.35820454745075, 29.684297031130242], [-95.35620949841233, 29.683692470012833], [-95.35611105439756, 29.682919398870595], [-95.3553712643984, 29.682459038184305], [-95.35294746333017, 29.683273483687397], [-95.35266813404225, 29.68403626696705], [-95.35192442237464, 29.68368583643488], [-95.35090923359934, 29.68387828332577], [-95.35062988739695, 29.68464106223668], [-95.34975633009174, 29.684397136505368], [-95.34974846710438, 29.68461703440734], [-95.34911494925058, 29.684709817048812], [-95.34896150552365, 29.685476025814516], [-95.34819813012273, 29.68567531923229], [-95.34778890567479, 29.68654460623517], [-95.3480210774304, 29.687101219776288], [-95.3495360518669, 29.687032477377155], [-95.34965017689906, 29.68736575709234], [-95.35002793858175, 29.6873760557132], [-95.34975250782757, 29.688028883249697], [-95.34762758142553, 29.687530710732585], [-95.34658873604425, 29.688382817414652], [-95.34668711309524, 29.689155894468332], [-95.34643526779136, 29.68914902256124], [-95.34642346199743, 29.689478868712975], [-95.34667530811573, 29.689485740641633], [-95.34702160029556, 29.69037563738576], [-95.34651396843357, 29.6904718430489], [-95.34634081929977, 29.691787790957257], [-95.34645100385737, 29.69223102162142], [-95.34707276685943, 29.692468097711554], [-95.34669105149409, 29.692567739404293], [-95.34667924613206, 29.692897585286246], [-95.34593155445896, 29.692657070912986], [-95.34504219215609, 29.692852909375265], [-95.34366870785855, 29.69600703595628], [-95.34375919324746, 29.697000010469665], [-95.34625422554377, 29.69772844928496], [-95.3464785432836, 29.698504960787357], [-95.34673041171574, 29.698511832595212], [-95.3465769292719, 29.699278035886376], [-95.3463250589561, 29.699271163791412], [-95.34643131587362, 29.69982434202168], [-95.3454080823654, 29.70023664323404], [-95.34480202556388, 29.69955976641997], [-95.34341279716175, 29.6996318940201], [-95.34267688289079, 29.699061516867836], [-95.34241713343259, 29.699274534075034], [-95.34243289328019, 29.6988347407906], [-95.34180716161258, 29.698707591872207], [-95.34181504282597, 29.698487695239763], [-95.34142935874968, 29.69869727009798], [-95.3413152479155, 29.698363984359354], [-95.3404337111103, 29.698339895322416], [-95.34032748830266, 29.69778671211897], [-95.33957583276893, 29.697656110877194], [-95.33893039353569, 29.69807868984679], [-95.33793476070608, 29.697721296438733], [-95.33794265020038, 29.69750139997713], [-95.33768289482202, 29.697714408091315], [-95.3368408238451, 29.69659081303139], [-95.33633709784782, 29.69657703174492], [-95.33634499070149, 29.69635713531158], [-95.33608523490028, 29.69657014039134], [-95.33521950541262, 29.696106224174343], [-95.33549110380618, 29.695563376109565], [-95.33527082379258, 29.694676897375935], [-95.33376362436896, 29.694525581904987], [-95.33311818086197, 29.694948133213895], [-95.33185493647859, 29.69502358956046], [-95.33171320161433, 29.695459932191117], [-95.33146924502995, 29.69523313593052], [-95.33095762209666, 29.695439230620973], [-95.33096552647162, 29.695219334439045], [-95.33046180804975, 29.69520553105329], [-95.33010773794456, 29.69453548879839], [-95.32898228813764, 29.694284525134282], [-95.32821485256113, 29.69459365226102], [-95.32822276278961, 29.694373756192302], [-95.32721533518614, 29.694346126891766], [-95.32347312857141, 29.693252918297368], [-95.32298526373872, 29.69279929504244], [-95.32136010910928, 29.69242448589334], [-95.32125003348514, 29.691981234616478], [-95.3188574544945, 29.691915478063596], [-95.31786195230413, 29.691557934885896], [-95.31786988463858, 29.691338039254873], [-95.31736222047472, 29.691434134410898], [-95.3172442296706, 29.691210775348367], [-95.31711037152562, 29.69142720737002], [-95.31711830547182, 29.691207311775965], [-95.31550907256069, 29.690392640209986], [-95.31552097852968, 29.69006279686768], [-95.31415964972872, 29.68936498669442], [-95.31392368746936, 29.68891826257012], [-95.31305415265797, 29.68856414995872], [-95.31281819709945, 29.688117423794104], [-95.31207062045357, 29.68787672011529], [-95.31171272410558, 29.687316575727426], [-95.31133496653604, 29.687306169043072], [-95.31024938496343, 29.68595556987521], [-95.30912805421046, 29.68559449107752], [-95.30827446952289, 29.684800556171957], [-95.31294528019798, 29.684599093785867], [-95.31370474606396, 29.68450994913351], [-95.3137126868205, 29.684290053348153], [-95.31786393811215, 29.684514342620975], [-95.31787186989412, 29.68429444658984], [-95.31850541358995, 29.684201811720314], [-95.31852920460754, 29.68354212342152], [-95.31916670748119, 29.68333953734259], [-95.31907647385265, 29.682346542715944], [-95.31983591756683, 29.682257363247135], [-95.31992219488694, 29.683360305491867], [-95.32054780500064, 29.683487557149768], [-95.32089781124766, 29.684267574703078], [-95.32203501471177, 29.68418876253068], [-95.32244048846277, 29.683429501877637], [-95.32234626187173, 29.682546457683422], [-95.32172065528981, 29.682419214395246], [-95.3222520369137, 29.681663413222743], [-95.32216177470596, 29.680670420249676], [-95.32153617987119, 29.680543176038018], [-95.32092643634253, 29.67997613600247], [-95.31964354949992, 29.680601218571685], [-95.31970696964139, 29.67884204735577], [-95.31996671448637, 29.678629073064197], [-95.31971489700513, 29.678622150896025], [-95.31961277097754, 29.677959000200076], [-95.319105175104, 29.678055102289296], [-95.31898719596994, 29.677831743992815], [-95.31795217559444, 29.67857368246113], [-95.31658304957203, 29.678095791247646], [-95.31657511549156, 29.67831568755178], [-95.31505627977519, 29.678494005378912], [-95.31504834236935, 29.678713901570422], [-95.31199078828968, 29.679620225250055], [-95.3112353302285, 29.679599412340572], [-95.31122738449187, 29.67981930824379], [-95.31010611779216, 29.67945823706238], [-95.30868930969325, 29.68029964029502], [-95.30705645222734, 29.680144552116705], [-95.30704849743117, 29.680364447741624], [-95.3056555251431, 29.680546131915516], [-95.3056475672927, 29.680766027434757], [-95.30475823140326, 29.680961599011987], [-95.30461640007887, 29.681397914549308], [-95.30484036458421, 29.68217449902946], [-95.30458853937164, 29.682167548426765], [-95.30444272533687, 29.682713811317], [-95.3046945518894, 29.682720762192815], [-95.30492249972035, 29.683387398619104], [-95.30465873119674, 29.683710291119827], [-95.30454077718024, 29.683486920421092], [-95.30301786145677, 29.683775049132652], [-95.30151485472862, 29.683513422765483], [-95.29911451514675, 29.683667208512848], [-95.29912248732089, 29.683447313545017], [-95.29861883142011, 29.68343339036902], [-95.29861085816026, 29.683653285307717], [-95.29797729979929, 29.6837458260841], [-95.29783543556695, 29.684182134129678], [-95.29608060719549, 29.683913483036665], [-95.2958806430073, 29.68247719980291], [-95.29501122586306, 29.682122969469095], [-95.2948972854071, 29.681789642775826], [-95.29880055533802, 29.681897606357936], [-95.30007163141987, 29.681602566365296], [-95.30170051838446, 29.68186768725257], [-95.3027197620989, 29.68156566561867], [-95.30299149485118, 29.681022881424504], [-95.3029093846032, 29.67980997991449], [-95.30429837137969, 29.67973827201548], [-95.30444418193086, 29.679192008866263], [-95.30469599978086, 29.679198959746042], [-95.30448796328828, 29.677982583257418], [-95.30560919384605, 29.678343701612167], [-95.30675429830568, 29.678045123409774], [-95.30690407072086, 29.677388909464465], [-95.30643226733777, 29.67649543243355], [-95.30581069636241, 29.676258166725813], [-95.30366234505614, 29.676418982568872], [-95.29895203100546, 29.677719598229068], [-95.29781488190115, 29.6777982145374], [-95.29780690734744, 29.67801810974558], [-95.2961621358442, 29.678192731453958], [-95.29615415769345, 29.678412626541757], [-95.29476119266849, 29.678594197496103], [-95.29475321146346, 29.678814092478028], [-95.29298251360822, 29.678985190374334], [-95.29297452853467, 29.679205085228435], [-95.29247488752424, 29.67908119150619], [-95.29188927659645, 29.67785433444152], [-95.29139363772089, 29.67762048920783], [-95.29105186918726, 29.67662049836604], [-95.2905562382338, 29.676386649959298], [-95.29032840003578, 29.675719987888762], [-95.28982877932836, 29.675596084183688], [-95.28794022068182, 29.675543731338617], [-95.28677509371451, 29.676391885495242], [-95.28514233223798, 29.676236529985196], [-95.28513433046322, 29.676456424526393], [-95.28361546750108, 29.676634385871377], [-95.28307581928385, 29.67760992904852], [-95.28167883726258, 29.677901311138772], [-95.28152089191622, 29.67877739097665], [-95.28039172978895, 29.67863596513608], [-95.27979024008935, 29.677848843397932], [-95.2787869968563, 29.677710902671585], [-95.27827936375121, 29.67780685002933], [-95.27749586172645, 29.678555475895344], [-95.27661050131168, 29.67864091369424], [-95.27608681853894, 29.679176640489356], [-95.27562329953517, 29.678063161448733], [-95.27348690321303, 29.67789365234253], [-95.27330881873209, 29.679319456731957], [-95.27267526435314, 29.679411877921083], [-95.27266723542844, 29.679631771539352], [-95.2717939078656, 29.67938733704907], [-95.2717858770411, 29.679607230615947], [-95.27039285230279, 29.679788548062344], [-95.26999905745986, 29.68021781168388], [-95.26969902711649, 29.681530155762964], [-95.26817202278853, 29.68192783504632], [-95.26776213084241, 29.682796878208897], [-95.26751030663354, 29.682789857891756], [-95.2677219315309, 29.683896343746728], [-95.26821754660041, 29.68413027620566], [-95.26829924740998, 29.68534319760707], [-95.2700500095844, 29.685722159146945], [-95.27004197449764, 29.685942052251942], [-95.27042373991064, 29.68584262883893], [-95.27039561974472, 29.68661225470423], [-95.27089527082815, 29.686736230554114], [-95.27088322080108, 29.68706607019647], [-95.2717445646815, 29.687640349810398], [-95.27085912051292, 29.687725749393664], [-95.27033937813864, 29.688151505958842], [-95.27045726257879, 29.68837490650363], [-95.26944187348103, 29.68856673562685], [-95.26916994191697, 29.68910945068599], [-95.26891810201094, 29.689102433028026], [-95.26883237188703, 29.687999459636732], [-95.26796300167632, 29.687645054231655], [-95.26795496193442, 29.687864947102575], [-95.2671914103933, 29.688063778661494], [-95.26689936294655, 29.689156221082786], [-95.26586384839425, 29.68989775479541], [-95.26561200676777, 29.689890730922798], [-95.26591211436211, 29.68857839882021], [-95.2655544693084, 29.688018131226833], [-95.2646810869351, 29.68777365088539], [-95.26304012645885, 29.687837919054672], [-95.26303207607863, 29.688057811619515], [-95.2620207024625, 29.688139638224396], [-95.26187867816459, 29.68857590767794], [-95.26124505587116, 29.68866827457949], [-95.2611070548328, 29.68899459695801], [-95.2602336747613, 29.68875008767819], [-95.26022561825293, 29.688969980022748], [-95.2595919920108, 29.68906233909512], [-95.25918199819311, 29.68993135440433], [-95.25866219578202, 29.69035706541559], [-95.25700506272895, 29.690861043903865], [-95.25659503961201, 29.69173005089093], [-95.25634319409667, 29.691723009594536], [-95.25616081274806, 29.69325873203427], [-95.25641266204647, 29.69326577367059], [-95.25664031757066, 29.69393249041128], [-95.2573918391481, 29.694063557131233], [-95.25762756544954, 29.69451038020948], [-95.25926057775374, 29.69466607041837], [-95.26021964797958, 29.696013562647344], [-95.26210051869569, 29.69628619813967], [-95.26153639735979, 29.69792132545105], [-95.26161802969473, 29.699134246590265], [-95.26199179924595, 29.699254739388312], [-95.26220742498712, 29.700251283333408], [-95.26455589846618, 29.701527457154196], [-95.26502342689191, 29.702531021804322], [-95.26401191120702, 29.702612863143678], [-95.26270020721921, 29.70400701759371], [-95.26105898403887, 29.70407126123411], [-95.2602791823475, 29.704709835549682], [-95.25913767216124, 29.70489806863741], [-95.25899561215755, 29.705334333127627], [-95.25811000353444, 29.705419648044188], [-95.25797196976542, 29.70574596576682], [-95.2574641773817, 29.705841833536606], [-95.25730194838539, 29.706827824026277], [-95.25755383130507, 29.706834863490283], [-95.25777749298062, 29.707611521479766], [-95.25815532032881, 29.707622079154632], [-95.25800922091103, 29.708168287841932], [-95.25561226896446, 29.708211347450163], [-95.2551044620725, 29.70830720621378], [-95.25470242257576, 29.708956312565473], [-95.2544586051608, 29.70872937689619], [-95.25344298308634, 29.708921083724324], [-95.25309421335757, 29.711552724792988], [-95.25246851525965, 29.7114251590186], [-95.25144882393596, 29.71172679587542], [-95.2489420022128, 29.7113264296376], [-95.24753637280534, 29.711837343329947], [-95.24726830530392, 29.71227006548363], [-95.24561075742406, 29.712773900038194], [-95.24468865817785, 29.71384863123914], [-95.24454299651192, 29.71780664845258], [-95.24539636199117, 29.718600982578426], [-95.24523804148514, 29.71947701026144], [-95.24498612789577, 29.719469947650946], [-95.24533972515363, 29.720140210355854], [-95.24683099753845, 29.72073229918776], [-95.24746887624079, 29.720530056414376], [-95.24774909342581, 29.71976750012572], [-95.24872441653413, 29.72067528628777], [-95.24910229177529, 29.720685869479965], [-95.24921208458598, 29.72112917662411], [-95.2511668384192, 29.722834774679264], [-95.25188221867263, 29.723955375358706], [-95.25275588054447, 29.72419993680652], [-95.25286973053487, 29.724533295616133], [-95.25198394986604, 29.724618569607358], [-95.25158586512988, 29.725157718913174], [-95.25169163452576, 29.72571096832827], [-95.25242319347863, 29.726391785974258], [-95.25378055728495, 29.72720016152989], [-95.25465828733842, 29.727334765499297], [-95.25489811419381, 29.727671644558352], [-95.25627568513922, 29.72793027021729], [-95.2561869335618, 29.730349057573793], [-95.25568305165059, 29.73033497312643], [-95.25527285835608, 29.731203966972195], [-95.25502091533167, 29.73119692326847], [-95.25537461886611, 29.731867157344137], [-95.25587850831437, 29.731881242945057], [-95.25710999927597, 29.73268606234365], [-95.25799987820128, 29.732490809816785], [-95.25801600767682, 29.732051030457605], [-95.25914169972415, 29.73230258779753], [-95.25999529944937, 29.733096825769586], [-95.26074308485674, 29.733337817176405], [-95.26097488752825, 29.73389457456116], [-95.26147878778032, 29.733908639094654], [-95.26306814088018, 29.73527367480914], [-95.26344607139008, 29.735284217479094], [-95.2639298483767, 29.735847997309023], [-95.26713688275277, 29.737808375230554], [-95.26737275305115, 29.7382551759329], [-95.2677506950697, 29.738265706453486], [-95.267726562379, 29.73892537610531], [-95.26884431249653, 29.739396741300776], [-95.26895019042837, 29.739949974938394], [-95.2705638529757, 29.740655250043634], [-95.27094582296507, 29.74055582657978], [-95.27105573215087, 29.74099911341327], [-95.27155966894365, 29.741013140009777], [-95.27038159843677, 29.742190971750315], [-95.2707032885727, 29.743740722366624], [-95.27271507369758, 29.74390676757057], [-95.27287319579271, 29.74303071324997], [-95.27338115908776, 29.74293478802559], [-95.27362108460655, 29.74327163213078], [-95.27500292855525, 29.74342011917249], [-95.27523483212836, 29.743976850343465], [-95.27506869998115, 29.745072797159224], [-95.27569463309831, 29.74520025620717], [-95.27568660550708, 29.745420146161266], [-95.27594661219064, 29.745207261011657], [-95.27644655750323, 29.74533121419999], [-95.27666643502509, 29.746217777530482], [-95.27729237717905, 29.7463452290754], [-95.2772843529473, 29.746565119055504], [-95.27779634128395, 29.746359232197722], [-95.27761819741848, 29.74778501636077], [-95.27874812238764, 29.747926462941475], [-95.27870801597585, 29.749025912657647], [-95.27945997250222, 29.749156853603292], [-95.27969592314977, 29.749603631212572], [-95.28019589460837, 29.749727570262237], [-95.28016783134605, 29.75049718489145], [-95.2810417891447, 29.75074156004542], [-95.28053379426552, 29.750837514077414], [-95.28038374481574, 29.75149368552313], [-95.2801317498616, 29.751486689077296], [-95.28036370060036, 29.752043409985305], [-95.28098166692841, 29.752390733806806], [-95.28070962719143, 29.752933462865048], [-95.2809135260675, 29.75425979645699], [-95.2806374723073, 29.754912469902372], [-95.28025545810563, 29.755011920577985], [-95.28009738213993, 29.755887980476217], [-95.2803493879606, 29.755894976973753], [-95.28054126144175, 29.757551144194146], [-95.28129328334052, 29.75768207448696], [-95.28128526715403, 29.75790196395672], [-95.28167129885351, 29.75769256567489], [-95.28151723876881, 29.758458681864127], [-95.28176524342865, 29.758575620411058], [-95.2815132308907, 29.758568626583468], [-95.28149719929182, 29.759008405425842], [-95.28174921291482, 29.759015399282283], [-95.2817331822628, 29.759455178097497], [-95.28148116755479, 29.7594481842122], [-95.28133511966993, 29.759994410477915], [-95.28170112054427, 29.760334735559653], [-95.2816129479683, 29.762753517422574], [-95.28097888229583, 29.76284597585157], [-95.28096284772191, 29.76328575410321], [-95.2804547903165, 29.763381707524175], [-95.28030873130702, 29.76392793207229], [-95.2806506886533, 29.76492792661458], [-95.28139474853123, 29.765278745021327], [-95.28138272367134, 29.76560857852614], [-95.28274084077796, 29.766416651614456], [-95.28284682300742, 29.76696986995211], [-95.28309885638716, 29.766976861247517], [-95.2827007716672, 29.767516096550665], [-95.28233073435864, 29.767285719372147], [-95.28232271965351, 29.76750560830951], [-95.28168862509293, 29.767598069983475], [-95.2815385584218, 29.76825423964638], [-95.28164854417999, 29.76869751424252], [-95.28314073744828, 29.76928919060692], [-95.28312070459143, 29.769838912731558], [-95.28248659625298, 29.769931378124593], [-95.28220249493096, 29.77080394067175], [-95.28242247866936, 29.77169048798296], [-95.28329261691738, 29.772044791260083], [-95.28277650397798, 29.77236064195173], [-95.28261040822781, 29.77345658912726], [-95.2827204042512, 29.773899862185356], [-95.2832204986207, 29.774023789026685], [-95.283380400464, 29.776559497454876], [-95.28400253147959, 29.7767968606817], [-95.28551888269209, 29.776728843862795], [-95.28562489069812, 29.777282058373167], [-95.28688518626844, 29.77731698384112], [-95.28762135383825, 29.777887654963205], [-95.28876762963495, 29.777589238513894], [-95.28878363281342, 29.77714946112576], [-95.28953580975016, 29.77728034438628], [-95.28952780978906, 29.777500233123504], [-95.29054804607297, 29.77719831189251], [-95.29001193218589, 29.778063911907207], [-95.29048806193536, 29.778847477558678], [-95.29020000486864, 29.779829999140564], [-95.29031004074041, 29.780273265147645], [-95.29068414203523, 29.780393675115025], [-95.29067214542714, 29.780723508023065], [-95.29042007756836, 29.780716531007737], [-95.29064415303989, 29.781493118016286], [-95.29039208328145, 29.781486140950634], [-95.2902460515589, 29.78203237350231], [-95.28961187388889, 29.78212487230591], [-95.28946183681151, 29.782781048108152], [-95.28981594684947, 29.783451181327486], [-95.2888936770611, 29.784526195523068], [-95.28914575422878, 29.784533175396977], [-95.28925179001295, 29.785086385789658], [-95.2907562640601, 29.785348142187804], [-95.29047618984708, 29.786110774281482], [-95.29072827103855, 29.78611775117518], [-95.29081032325273, 29.787330624678695], [-95.29294504690745, 29.787609796095474], [-95.29293705348508, 29.787829684380785], [-95.29445755781123, 29.78765162246921], [-95.2952018309099, 29.78800236187372], [-95.29533586228268, 29.787785957519848], [-95.29532387984574, 29.7881157901363], [-95.29582405921497, 29.78823966942109], [-95.29580808464875, 29.788679446235477], [-95.29655636275596, 29.788920233825046], [-95.29769874476327, 29.78873168613914], [-95.29860898798043, 29.787986445620614], [-95.29859701610299, 29.788316278506194], [-95.29947134204588, 29.788560530719067], [-95.29945937288933, 29.788890363625804], [-95.30008161651484, 29.789127651347293], [-95.30071582822352, 29.789035103192592], [-95.30072380497278, 29.788815214527226], [-95.30084187277782, 29.789038582068038], [-95.3016061151335, 29.788839564116543], [-95.3020201309206, 29.787860498381836], [-95.30227221722406, 29.787867453565358], [-95.30249639863031, 29.78864401911919], [-95.30350475192523, 29.788671833417972], [-95.30322874958767, 29.78932454698041], [-95.30343301399628, 29.790650832434984], [-95.3027788635752, 29.791293115035685], [-95.30274697331659, 29.792172669461035], [-95.30412155278461, 29.79254074248494], [-95.3041295224665, 29.792320853843293], [-95.30617019899879, 29.791716783847722], [-95.30618612936728, 29.79127700620482], [-95.30643822439768, 29.791283953545154], [-95.30620604213475, 29.790727284069717], [-95.30557979130828, 29.790599969314552], [-95.30559174087573, 29.79027013603293], [-95.30509552339663, 29.790036348845145], [-95.30523351999747, 29.78970999029805], [-95.30624984946772, 29.789517895054125], [-95.3063878416742, 29.78919153527174], [-95.30727015644057, 29.789215847583655], [-95.306730139354, 29.79019145590769], [-95.30684025823129, 29.79063470698657], [-95.30758857671884, 29.79087543285257], [-95.30847886651435, 29.790679848244142], [-95.3086327727689, 29.78991370817672], [-95.31027534837928, 29.789848882960108], [-95.31042128403828, 29.789302629868825], [-95.31067337447769, 29.789309569252115], [-95.31031512906928, 29.78874943694837], [-95.31048492987334, 29.787543515730597], [-95.31135132390838, 29.788007579819226], [-95.31311991072063, 29.787946188609748], [-95.31322608006379, 29.78849937943218], [-95.3137262830478, 29.788623191907085], [-95.31474655893214, 29.788321087477176], [-95.31501453901907, 29.78788823962409], [-95.31551871356609, 29.787902100652556], [-95.31584918021781, 29.789231832626943], [-95.31621937281706, 29.789462115761467], [-95.3174798292975, 29.789496753427365], [-95.3177597109192, 29.788734065766555], [-95.31801180045223, 29.78874099135375], [-95.31760587499264, 29.78950021654218], [-95.31796019323313, 29.790170274024952], [-95.31871250359173, 29.79030099303775], [-95.3202369671083, 29.790012694083874], [-95.32022903232787, 29.79023258381425], [-95.3212294735052, 29.79048015450264], [-95.32186367442533, 29.790387506356616], [-95.32214352571428, 29.789624809753967], [-95.32154105750729, 29.78883789980419], [-95.31977642814158, 29.78878945719204], [-95.32083635453311, 29.78738785722724], [-95.32073807851407, 29.78661478229491], [-95.32023787686866, 29.78649099590694], [-95.32024977856138, 29.78616116094858], [-95.3210099950954, 29.78607197725088], [-95.32141588157863, 29.785312741020316], [-95.32255817721415, 29.785123981365], [-95.32269611130273, 29.784797604410244], [-95.3234523518265, 29.78481835194054], [-95.32372028577275, 29.78438548626909], [-95.32512256934442, 29.78398372878375], [-95.32497275795137, 29.784639943856035], [-95.32533106940679, 29.78520003762947], [-95.32443689707749, 29.78550567954924], [-95.32429104190133, 29.78605194845923], [-95.32440123261223, 29.786495185612463], [-95.32540560894513, 29.786632780322623], [-95.32577185239023, 29.78697298236746], [-95.32538580044005, 29.787182505911687], [-95.32508220761738, 29.78860488020172], [-95.32542072479215, 29.789714698227716], [-95.32503862394782, 29.789814275585922], [-95.32493238917814, 29.789261094356494], [-95.32442820663687, 29.789247268735572], [-95.32394780434348, 29.7885737711472], [-95.32344758919757, 29.788449996809454], [-95.32268339238531, 29.788649139258794], [-95.32252562867492, 29.78952524064003], [-95.32275393258514, 29.790191826947858], [-95.32350624924487, 29.790322519059792], [-95.3232462271306, 29.79053549369505], [-95.32347850194492, 29.791092133650853], [-95.3242268630444, 29.791332766604995], [-95.32421101044545, 29.791772546348223], [-95.32482540418728, 29.792229608836735], [-95.32684219435009, 29.792284893898152], [-95.32632611388499, 29.792600910384426], [-95.32616837534935, 29.793477015037606], [-95.32652672441168, 29.794037104168147], [-95.3272790742649, 29.794167774951802], [-95.32699924891166, 29.794930481256433], [-95.32721571392437, 29.795926893549684], [-95.3280862144438, 29.796280903436386], [-95.32923653639783, 29.795872197625773], [-95.32951634760563, 29.79510948686696], [-95.32892170650528, 29.794102721360453], [-95.32943778652714, 29.79378669502193], [-95.32959154004962, 29.79302053165986], [-95.33021783569254, 29.79314773415247], [-95.33020992218368, 29.793367624264246], [-95.33085204503197, 29.793055043559722], [-95.33210859616135, 29.79319948872361], [-95.33261675343984, 29.793103340310456], [-95.33301467410918, 29.792563960840212], [-95.33415307700182, 29.792485047933187], [-95.33427122225123, 29.7927083857589], [-95.3342791269542, 29.792488495368893], [-95.33554752890107, 29.792303072732775], [-95.33537367803532, 29.79714065984071], [-95.33573604148856, 29.797590778668777], [-95.33547602638279, 29.797803776567196], [-95.33572418853942, 29.797920613885378], [-95.33566492264383, 29.799569789476198], [-95.3357751773831, 29.80001301551316], [-95.33652758316076, 29.800143634153002], [-95.33651968271184, 29.800363524182938], [-95.33665364265788, 29.800147079345006], [-95.33766211894132, 29.8001746366143], [-95.33789844313831, 29.800621304947892], [-95.3389029767717, 29.80075879791911], [-95.33954511950816, 29.80044617625069], [-95.33956090734019, 29.80000639583564], [-95.34006514511087, 29.800020164486686], [-95.3400533058786, 29.800349999846006], [-95.34067571381303, 29.800587098303126], [-95.3425666174843, 29.80063870523336], [-95.34333480818337, 29.800329504925166], [-95.34331903657316, 29.800769285736283], [-95.34418569230316, 29.801233135743644], [-95.34419357629275, 29.801013245325052], [-95.34482782183366, 29.80092048882645], [-95.34509964834822, 29.800377637230657], [-95.34572206818106, 29.80061471225769], [-95.34648630964598, 29.80041543917481], [-95.34946452062687, 29.80181721070628], [-95.35060694915843, 29.801628212935448], [-95.35088268157979, 29.80097540434324], [-95.35253327434948, 29.800690170761133], [-95.35254114030113, 29.80047027982445], [-95.35277753033938, 29.80091692186693], [-95.35377029193764, 29.80138413980275], [-95.35490484674429, 29.801414996356886], [-95.35542088324577, 29.80109887071107], [-95.35679970136248, 29.801356457049323], [-95.35743393756958, 29.801263640938913], [-95.35744179300038, 29.801043749756055], [-95.3581903072093, 29.801284192377285], [-95.36009300722286, 29.80100571530483], [-95.36023084267643, 29.800679301295986], [-95.36110542206468, 29.800923150576182], [-95.3618657128532, 29.80083373558033], [-95.36186963577916, 29.800723789849037], [-95.36199569684626, 29.800727211215804], [-95.36197215997812, 29.801386885569855], [-95.36222428376674, 29.801393727990135], [-95.36188193249642, 29.803915636040635], [-95.36211444862558, 29.804472206765094], [-95.36462792420633, 29.80476049823852], [-95.3665267534437, 29.80459187583061], [-95.36666065525993, 29.804375401314], [-95.36817344470897, 29.804416395778134], [-95.36822901879441, 29.806398835002486], [-95.36948187224874, 29.806652874995443], [-95.3697066066449, 29.80742932356521], [-95.37021088516657, 29.80744297881047], [-95.370203056773, 29.807662870315546], [-95.37084123350856, 29.807460045200234], [-95.37125074716243, 29.806590717219436], [-95.37213322776955, 29.806614602501256], [-95.37412295826147, 29.807438796794436], [-95.374698576316, 29.808995086843918], [-95.37495071976483, 29.809001905312847], [-95.37468293860809, 29.809434870153865], [-95.3749350831431, 29.809441688650907], [-95.37504161013538, 29.809994826828838], [-95.37541982906308, 29.810005053382497], [-95.37516377415577, 29.81010818161248], [-95.37527421193798, 29.81055137369996], [-95.37502206463681, 29.810544555843887], [-95.37530256513155, 29.813303426404573], [-95.37605121141986, 29.81354376840205], [-95.37603557884744, 29.81398355127503], [-95.37678423185586, 29.81422388912933], [-95.37677641711488, 29.814443780570944], [-95.37766677980858, 29.814247737916137], [-95.37741071652121, 29.814350870309898], [-95.3775094488562, 29.81512389714804], [-95.37725729010036, 29.815117083508436], [-95.377608182688, 29.81589692373517], [-95.37756911688808, 29.816996380484472], [-95.3784360662641, 29.817460006770812], [-95.37907819293734, 29.817147197354767], [-95.38008294480926, 29.81728438106995], [-95.3798190679179, 29.817607409395077], [-95.38055214269095, 29.818287508683593], [-95.3802960721781, 29.818390646465236], [-95.3805287218063, 29.818947182814604], [-95.38191174665302, 29.81909456378469], [-95.38224318005406, 29.820424119325335], [-95.38249535226545, 29.820430923574346], [-95.38269290729345, 29.82197696667225], [-95.3868460233065, 29.82230905362036]], [[-95.34510358932904, 29.800267691969164], [-95.34484752822272, 29.800370762609194], [-95.34485146947503, 29.80026081735479], [-95.34510358932904, 29.800267691969164]], [[-95.36212960320539, 29.80051074097645], [-95.36199569684626, 29.800727211215804], [-95.36200354240133, 29.80050731973524], [-95.36212960320539, 29.80051074097645]], [[-95.32527486886637, 29.790260967543794], [-95.32501881284729, 29.790364000616034], [-95.32502277508448, 29.79025405561725], [-95.32527486886637, 29.790260967543794]], [[-95.30815645199931, 29.78913020954687], [-95.3078964008793, 29.789343154497118], [-95.30790436217444, 29.7891232654307], [-95.30815645199931, 29.78913020954687]], [[-95.3077743364959, 29.789229737726316], [-95.30739222024681, 29.78932926481417], [-95.30739620144153, 29.789219320297068], [-95.3077743364959, 29.789229737726316]], [[-95.30841650203364, 29.78891726407952], [-95.30815645199931, 29.78913020954687], [-95.30816441271728, 29.788910320451656], [-95.30841650203364, 29.78891726407952]], [[-95.30855448649586, 29.788590902013624], [-95.30842446217441, 29.788697374955582], [-95.30842844223194, 29.788587430388173], [-95.30855448649586, 29.788590902013624]], [[-95.31776765090588, 29.788514176084934], [-95.31763763629887, 29.788620657959783], [-95.31764160642363, 29.78851071312072], [-95.31776765090588, 29.788514176084934]], [[-95.31894173883694, 29.787445888484555], [-95.3188355395955, 29.786892702032212], [-95.31858345457401, 29.786885777988328], [-95.31884744586925, 29.78656286723478], [-95.31922160390202, 29.786683197326546], [-95.31894173883694, 29.787445888484555]], [[-95.32545711005923, 29.78520349336968], [-95.32532314598097, 29.7854199279624], [-95.32533106940679, 29.78520003762947], [-95.32545711005923, 29.78520349336968]], [[-95.3256425712539, 29.783557770929278], [-95.32550860973025, 29.783774205808857], [-95.32551653262848, 29.783554315360977], [-95.3256425712539, 29.783557770929278]], [[-95.44075006068184, 29.785783674689203], [-95.44049413265557, 29.785886928321755], [-95.44049797026301, 29.785776979871134], [-95.44075006068184, 29.785783674689203]], [[-95.28892566477376, 29.776713173776752], [-95.28879163435094, 29.776929572410257], [-95.28867360694281, 29.776706193465778], [-95.28892566477376, 29.776713173776752]], [[-95.43464563373466, 29.754697084526033], [-95.43450809845476, 29.75502357913393], [-95.43451962711953, 29.754693731392493], [-95.43464563373466, 29.754697084526033]], [[-95.43465331919849, 29.754477186007417], [-95.43439746352007, 29.754580428889884], [-95.43440130651912, 29.754470479635778], [-95.43465331919849, 29.754477186007417]], [[-95.27954818771913, 29.74673806336395], [-95.27930823443002, 29.74640123019374], [-95.27804832338836, 29.746366233048207], [-95.27819035900849, 29.745929953191613], [-95.27944224515902, 29.74618483913854], [-95.27981219908912, 29.746415225735426], [-95.27954818771913, 29.74673806336395]], [[-95.43271671712404, 29.74132947070717], [-95.43258688283024, 29.74143606542997], [-95.4325907270931, 29.741326115742403], [-95.43271671712404, 29.74132947070717]], [[-95.35273831299357, 29.73851554024267], [-95.35247848395929, 29.738728574712017], [-95.35248634522975, 29.73850867980942], [-95.35273831299357, 29.73851554024267]], [[-95.25815810913741, 29.73161477012372], [-95.25790213244056, 29.731717676700512], [-95.25790616489742, 29.731607731845653], [-95.25815810913741, 29.73161477012372]], [[-95.425758692993, 29.734760972332996], [-95.42562500825609, 29.734977510188482], [-95.42563271131652, 29.7347576108203], [-95.425758692993, 29.734760972332996]], [[-95.4262780230857, 29.734334618351827], [-95.42576254437486, 29.73465102264029], [-95.42590778202907, 29.734104635498866], [-95.4262780230857, 29.734334618351827]], [[-95.42592318676365, 29.733664836611876], [-95.4257933551305, 29.733771424976112], [-95.42579720643754, 29.73366147525276], [-95.42592318676365, 29.733664836611876]], [[-95.42390750254393, 29.733611040653212], [-95.42377766886999, 29.73371762706617], [-95.4237815223509, 29.73360767739906], [-95.42390750254393, 29.733611040653212]], [[-95.42391520920901, 29.73339114130176], [-95.42366324937474, 29.733384414689038], [-95.42343441263012, 29.73271798955096], [-95.42255641405963, 29.73258449150248], [-95.42282378973053, 29.7321514214856], [-95.42248440291422, 29.731041831393988], [-95.42300372774989, 29.730615489671408], [-95.42317980638772, 29.729189506760793], [-95.42442414338055, 29.729662938920256], [-95.42520310627975, 29.72902341404884], [-95.42544735241746, 29.72925003747498], [-95.42633302715971, 29.729163616960875], [-95.42786781847312, 29.72854423989856], [-95.42861211877509, 29.72889424448604], [-95.42885252435437, 29.729230811652453], [-95.42821495269426, 29.729433917269024], [-95.42794375823631, 29.729976948259118], [-95.42817261832604, 29.730643366191217], [-95.42791296719852, 29.730856547324166], [-95.42799660707435, 29.732069355095472], [-95.4273590159395, 29.732272456483873], [-95.42734361761525, 29.732712255702264], [-95.4260799750812, 29.732788599887137], [-95.42594629361606, 29.733005138179326], [-95.42558761262794, 29.732445305075327], [-95.42610308071936, 29.732128901270315], [-95.4260117614058, 29.731135991956], [-95.42526745365836, 29.73078597313755], [-95.4246337175731, 29.73087911183778], [-95.42391520920901, 29.73339114130176]], [[-95.4347533551676, 29.73356998748191], [-95.4341272950581, 29.733443271040837], [-95.43413497964646, 29.73322337109348], [-95.4348985430499, 29.733023590439064], [-95.4350706181087, 29.731707542896686], [-95.43607076378062, 29.731954260869685], [-95.4354255077625, 29.73237730076651], [-95.43526880047641, 29.733253548517414], [-95.43489086012511, 29.733243490442067], [-95.4347533551676, 29.73356998748191]], [[-95.43400131473562, 29.733439917394517], [-95.43387149184308, 29.733546513591293], [-95.43387533442146, 29.733436563629752], [-95.43400131473562, 29.733439917394517]], [[-95.25919712560258, 29.727351547084105], [-95.25856729125022, 29.727333955362997], [-95.25858341745952, 29.726894175320854], [-95.25783165212918, 29.726763116438892], [-95.25783971679408, 29.726543226434885], [-95.25707988873334, 29.726632053334445], [-95.25708795501073, 29.726412163367797], [-95.2550805761913, 29.726135937836283], [-95.25460093009139, 29.725462179631503], [-95.25672619215702, 29.725961822809378], [-95.25671812513436, 29.72618171278099], [-95.25734795204276, 29.726199313199924], [-95.2573560177072, 29.725979423191482], [-95.26126094097452, 29.7260884794806], [-95.26227671950053, 29.725896714256226], [-95.26228477450132, 29.725676823933878], [-95.26278058036785, 29.725910773926902], [-95.26188674015256, 29.726216003684872], [-95.26161869608161, 29.726648752896384], [-95.25920518736639, 29.72713165703303], [-95.25919712560258, 29.727351547084105]], [[-95.43645253920133, 29.731854365538304], [-95.43632272089502, 29.731960964155657], [-95.43632656076757, 29.731851014076504], [-95.43645253920133, 29.731854365538304]], [[-95.43521964267156, 29.731051195162223], [-95.43508982409863, 29.73115779260837], [-95.43509366527172, 29.731047842540526], [-95.43521964267156, 29.731051195162223]], [[-95.33747158962957, 29.728194052189025], [-95.33734167244884, 29.72830055498644], [-95.33734561902457, 29.728190607668854], [-95.33747158962957, 29.728194052189025]], [[-95.3373535121505, 29.727970713023456], [-95.33721964842812, 29.728187163030235], [-95.33722754182571, 29.727967268392046], [-95.3373535121505, 29.727970713023456]], [[-95.26304056422461, 29.725697912685227], [-95.2629025187721, 29.72602423372299], [-95.26291459924899, 29.72569439818939], [-95.26304056422461, 29.725697912685227]], [[-95.33723543518923, 29.727747373740314], [-95.33697560120167, 29.727960378773925], [-95.33698349510857, 29.7277404841366], [-95.33723543518923, 29.727747373740314]], [[-95.43650629464425, 29.730315064025252], [-95.43499073555985, 29.730384789343173], [-95.43500225928771, 29.730054939068808], [-95.43562829965961, 29.73018165153971], [-95.4356359807614, 29.72996175131158], [-95.43652549262296, 29.72976531332381], [-95.43626586121634, 29.72997851069162], [-95.43650629464425, 29.730315064025252]], [[-95.4350099417315, 29.729835038868952], [-95.4348762831272, 29.7300515862418], [-95.4348839658427, 29.72983168604893], [-95.4350099417315, 29.729835038868952]], [[-95.2531216569291, 29.72454034337804], [-95.25286569292203, 29.72464324053008], [-95.25286973053487, 29.724533295616133], [-95.2531216569291, 29.72454034337804]], [[-95.42923429664582, 29.729130936812915], [-95.42897849930135, 29.72923417014345], [-95.42898234699867, 29.729124220193267], [-95.42923429664582, 29.729130936812915]], [[-95.26698570700725, 29.724707350144683], [-95.26673780188928, 29.72459038312162], [-95.26674584715677, 29.724370492454266], [-95.26699777410661, 29.72437751412669], [-95.26698570700725, 29.724707350144683]], [[-95.43755633052062, 29.72913241910041], [-95.43742651683858, 29.72923901886557], [-95.43743035541702, 29.729129068673682], [-95.43755633052062, 29.72913241910041]], [[-95.2692731580179, 29.724220797034906], [-95.26901721113151, 29.724323725048524], [-95.26902123129882, 29.724213779640355], [-95.2692731580179, 29.724220797034906]], [[-95.26902927160742, 29.723993888813865], [-95.26889526795232, 29.724210270765457], [-95.26890330853256, 29.723990379946294], [-95.26902927160742, 29.723993888813865]], [[-95.41994050539289, 29.724480748841657], [-95.41981067920541, 29.724587331674233], [-95.4198145366228, 29.724477381849102], [-95.41994050539289, 29.724480748841657]], [[-95.42309743509634, 29.724344985321956], [-95.42296761238515, 29.724451571217024], [-95.42297146638985, 29.724341621297203], [-95.42309743509634, 29.724344985321956]], [[-95.43358360716171, 29.723744184682314], [-95.43332782775215, 29.723847426464932], [-95.43333167055144, 29.7237374762302], [-95.43358360716171, 29.723744184682314]], [[-95.44621111118077, 29.723199398431074], [-95.44608131411708, 29.7233060067506], [-95.44608514313018, 29.72319605613537], [-95.44621111118077, 29.723199398431074]], [[-95.4462187689105, 29.722979497183537], [-95.446088972135, 29.723086105516774], [-95.44609280113156, 29.722976154894834], [-95.4462187689105, 29.722979497183537]], [[-95.43743175102166, 29.721865647797614], [-95.4373019464697, 29.72197224765072], [-95.43730578490876, 29.72186229724677], [-95.43743175102166, 29.721865647797614]], [[-95.43780964941008, 29.72187569873958], [-95.43743175102166, 29.721865647797614], [-95.43720285007946, 29.721199244104554], [-95.4374624571491, 29.720986044417447], [-95.4373671988067, 29.720103090327807], [-95.43761912669409, 29.720109791198958], [-95.4372757804833, 29.719110185477057], [-95.43676809081991, 29.719206732436266], [-95.43664980610218, 29.718983480322166], [-95.43639020243518, 29.719196678549025], [-95.43527189984277, 29.718726708759515], [-95.43501229394639, 29.718939904331286], [-95.43464593031057, 29.718599994229137], [-95.43553918508346, 29.718293611758753], [-95.43577574856737, 29.718740117912933], [-95.43716133324376, 29.718776983314665], [-95.43742093422735, 29.718563783569866], [-95.43731032542003, 29.718120630968397], [-95.43756224840104, 29.71812733195027], [-95.43731416370493, 29.718010680450682], [-95.43757376241585, 29.717797480366144], [-95.43733719324017, 29.717350977274364], [-95.43746315377575, 29.717354327799985], [-95.4374593156764, 29.71746427834123], [-95.43771123704407, 29.71747097904421], [-95.43794013293466, 29.718137382534927], [-95.43856610372147, 29.718264081690208], [-95.43907378698285, 29.7181675278939], [-95.43935639885711, 29.717294620876444], [-95.4405015483898, 29.716994902353303], [-95.44034490842894, 29.717871159671567], [-95.44094787442064, 29.718657551285816], [-95.44016525438587, 29.71940712002024], [-95.4403980057105, 29.719963568423495], [-95.4401307367459, 29.720396674922384], [-95.439497078889, 29.72048988417444], [-95.43948173475063, 29.720929686182604], [-95.43821824748042, 29.72100614506735], [-95.43780964941008, 29.72187569873958]], [[-95.43262669621541, 29.71865627961737], [-95.43224112272127, 29.718866114752764], [-95.43212284832016, 29.71864285862142], [-95.43262669621541, 29.71865627961737]], [[-95.4311113079296, 29.71872596126752], [-95.43085553861451, 29.718829198469244], [-95.4308593838929, 29.718719248157168], [-95.4311113079296, 29.71872596126752]], [[-95.4338863165342, 29.71868982381752], [-95.4336305501222, 29.718793066317517], [-95.43363439240409, 29.718683115924893], [-95.4338863165342, 29.71868982381752]], [[-95.44157768585251, 29.71867428575069], [-95.4414478897056, 29.718780889711095], [-95.44145172354958, 29.71867093909456], [-95.44157768585251, 29.71867428575069]], [[-95.43772275050229, 29.717141127389436], [-95.43746315377575, 29.717354327799985], [-95.43747082994956, 29.717134426707478], [-95.43772275050229, 29.717141127389436]], [[-95.41972980068904, 29.71611108442771], [-95.4194855987723, 29.715884449777175], [-95.41922596708413, 29.716097614922422], [-95.41887895681023, 29.715207911071822], [-95.41902034576549, 29.714771478619678], [-95.41939821601731, 29.71478158151003], [-95.41913858695703, 29.714994746548545], [-95.41936735578759, 29.71566118220762], [-95.4199932882527, 29.715787968220464], [-95.41972980068904, 29.71611108442771]], [[-95.4417841512708, 29.716368668422405], [-95.4415245650127, 29.716581876745593], [-95.44153223236134, 29.71636197537556], [-95.4417841512708, 29.716368668422405]], [[-95.43764284493889, 29.71581837023005], [-95.43750921032158, 29.716034921044518], [-95.43751688629655, 29.715815019871872], [-95.43764284493889, 29.71581837023005]], [[-95.43375734104512, 29.715164701596436], [-95.43350158335272, 29.71526794394706], [-95.43350542564083, 29.71515799345459], [-95.43375734104512, 29.715164701596436]], [[-95.42318077607277, 29.714772601587857], [-95.42292115495033, 29.714985773956432], [-95.4229288623355, 29.714765873558274], [-95.42318077607277, 29.714772601587857]], [[-95.43150163693484, 29.71477445993798], [-95.4313718352132, 29.714881054248032], [-95.43137567978532, 29.7147711038052], [-95.43150163693484, 29.71477445993798]], [[-95.43756677932616, 29.7143856619247], [-95.43743698444626, 29.714492262121468], [-95.43744082245773, 29.71438231149366], [-95.43756677932616, 29.7143856619247]], [[-95.43731486559759, 29.714378960944217], [-95.43693315651215, 29.714478859199094], [-95.43681487692213, 29.714255606948534], [-95.43719274702055, 29.714265659652177], [-95.43718890874575, 29.714375610276328], [-95.43731486559759, 29.714378960944217]], [[-95.43782636827105, 29.714172461144887], [-95.43756677932616, 29.7143856619247], [-95.4375744550526, 29.714165760652076], [-95.43782636827105, 29.714172461144887]], [[-95.43744466046093, 29.714272360862502], [-95.43731486559759, 29.714378960944217], [-95.4373187037366, 29.71426901031655], [-95.43744466046093, 29.714272360862502]], [[-95.42032619150007, 29.713485749034195], [-95.42007428113348, 29.713479015634736], [-95.42012827434772, 29.7119397130954], [-95.4202542276255, 29.71194307980505], [-95.42032619150007, 29.713485749034195]], [[-95.4432655007884, 29.713656702324997], [-95.44313188095869, 29.713873258871534], [-95.44313954463401, 29.71365335725088], [-95.4432655007884, 29.713656702324997]], [[-95.43999831389587, 29.713349790452785], [-95.43961661129806, 29.713449696380053], [-95.43962044691784, 29.713339745659436], [-95.43999831389587, 29.713349790452785]], [[-95.43926176002623, 29.712779946199777], [-95.43913196896573, 29.712886548083986], [-95.43913580508736, 29.712776597360726], [-95.43926176002623, 29.712779946199777]], [[-95.42327710878926, 29.71202384531125], [-95.42302905531473, 29.71190716717032], [-95.42303676223408, 29.71168726658583], [-95.42328866836591, 29.711693994418415], [-95.42327710878926, 29.71202384531125]], [[-95.42305217597296, 29.711247465377053], [-95.42291080918064, 29.71168390249194], [-95.42280027096083, 29.71124073709896], [-95.42305217597296, 29.711247465377053]], [[-95.41890346331202, 29.71091648782667], [-95.418659275685, 29.71068985135603], [-95.41882766488902, 29.709483767020608], [-95.41857576451696, 29.709477030795878], [-95.4188353806935, 29.70926386653619], [-95.41876344237475, 29.707721194777697], [-95.42002677947465, 29.707644919091884], [-95.42043161616654, 29.70688536672118], [-95.42020286007978, 29.70621893132694], [-95.41907320210424, 29.706078675850534], [-95.41908477461669, 29.705748824800946], [-95.4192030054781, 29.70597209320756], [-95.41933666580462, 29.70575556007566], [-95.42084801363134, 29.705795961777564], [-95.42096239293583, 29.70612917902447], [-95.42171036044613, 29.706369273665302], [-95.42184401596472, 29.706152738054683], [-95.42272563940129, 29.70617629128277], [-95.42324483648063, 29.705749945794427], [-95.42358800000083, 29.706749591025712], [-95.4240956400758, 29.706653093692143], [-95.42421388296748, 29.70687635762238], [-95.42422158694896, 29.706656456676914], [-95.42472537452467, 29.706669907431927], [-95.42456091145226, 29.707766049621448], [-95.42528964505574, 29.7085558763645], [-95.42362533649721, 29.709281814162456], [-95.4234801219894, 29.709828202473574], [-95.42372817091866, 29.70994487984394], [-95.42222061466657, 29.70979456035638], [-95.42208695517066, 29.71001109613436], [-95.42209466398003, 29.709791195493377], [-95.42171681197036, 29.70978110019387], [-95.42106778126934, 29.710314023763257], [-95.42005631456213, 29.710397043126186], [-95.4200486013072, 29.71061694361474], [-95.41890346331202, 29.71091648782667]], [[-95.42636159280465, 29.710345336151736], [-95.42625104102656, 29.70990217344938], [-95.42600298931201, 29.709785500749042], [-95.42650679259583, 29.70979894479303], [-95.42636159280465, 29.710345336151736]], [[-95.43632714413415, 29.710170675681198], [-95.43607140158316, 29.710273923073842], [-95.43607524090949, 29.71016397236184], [-95.43632714413415, 29.710170675681198]], [[-95.42600683948604, 29.709675550311204], [-95.42587703851184, 29.70978213944199], [-95.42588088882167, 29.709672189007698], [-95.42600683948604, 29.709675550311204]], [[-95.41876730028372, 29.707611244487715], [-95.41863749436565, 29.707717826662492], [-95.4186413524104, 29.707607876376056], [-95.41876730028372, 29.707611244487715]], [[-95.42485517273865, 29.706563319329383], [-95.42472537452467, 29.706669907431927], [-95.42472922595975, 29.706559956940175], [-95.42485517273865, 29.706563319329383]], [[-95.42977479557905, 29.706474458872904], [-95.42964500262525, 29.706581051744184], [-95.42964884874775, 29.70647110110877], [-95.42977479557905, 29.706474458872904]], [[-95.42814133516343, 29.70632084810652], [-95.42800769280854, 29.70653738998936], [-95.42801538857587, 29.706317488806544], [-95.42814133516343, 29.70632084810652]], [[-95.4189472561154, 29.706075308024996], [-95.41856941819884, 29.706065203837905], [-95.4185771343018, 29.70584530316963], [-95.41895882903522, 29.70574545698597], [-95.4189472561154, 29.706075308024996]], [[-95.37133941595009, 29.7012720059111], [-95.37046957626458, 29.70091826723145], [-95.37086302767885, 29.700488710674968], [-95.37130338183081, 29.698739763054625], [-95.37304694276771, 29.699337275103087], [-95.37351943599569, 29.70023051200623], [-95.37161474418565, 29.700619136250104], [-95.37133941595009, 29.7012720059111]], [[-95.29225972487684, 29.6988856223098], [-95.29212979781714, 29.698992082094193], [-95.29213379204501, 29.69888213525647], [-95.29225972487684, 29.6988856223098]], [[-95.35940275205822, 29.70017762871426], [-95.35926897169483, 29.70039410234317], [-95.3592768153524, 29.70017420478475], [-95.35940275205822, 29.70017762871426]], [[-95.291650034529, 29.698318451694202], [-95.28978103747592, 29.697716390883624], [-95.28991895849022, 29.697390039715728], [-95.28956115050987, 29.696829837526618], [-95.28880956717691, 29.696698951395454], [-95.28857769703794, 29.696142236659096], [-95.29056859240923, 29.696857750002884], [-95.29069851837853, 29.696751291673408], [-95.29132816921026, 29.696768732513153], [-95.291332164216, 29.69665878563539], [-95.29183588449358, 29.69667273616153], [-95.29183987894767, 29.696562789265908], [-95.29196580890286, 29.696566276597803], [-95.291650034529, 29.698318451694202]], [[-95.37364146692715, 29.700343871743964], [-95.37351162307255, 29.70045041039224], [-95.37351552953832, 29.700340461200874], [-95.37364146692715, 29.700343871743964]], [[-95.36131140179522, 29.699679229208844], [-95.36118154589559, 29.699785755924218], [-95.36118546564133, 29.69967580707324], [-95.36131140179522, 29.699679229208844]], [[-95.38325948460499, 29.699283332731547], [-95.38312965215924, 29.699389880731186], [-95.3831335482055, 29.69927993122968], [-95.38325948460499, 29.699283332731547]], [[-95.39611280556612, 29.69940976421746], [-95.39597910421172, 29.69962627453702], [-95.39598686858206, 29.69940637479958], [-95.39611280556612, 29.69940976421746]], [[-95.29209573304067, 29.69645981690512], [-95.29196580890286, 29.696566276597803], [-95.2919698032126, 29.696456329695245], [-95.29209573304067, 29.69645981690512]], [[-95.39599075075466, 29.699296424925933], [-95.39536494948199, 29.699169526219134], [-95.39536883231669, 29.69905957635669], [-95.39562070539476, 29.69906635623675], [-95.39562847049592, 29.69884645648782], [-95.39575440677599, 29.69884984624315], [-95.39599075075466, 29.699296424925933]], [[-95.4038027249269, 29.699396394619715], [-95.40368453544313, 29.69917311223567], [-95.40329897608486, 29.69938286515618], [-95.40331447315926, 29.698943064794015], [-95.40356634647738, 29.69894982973428], [-95.40334546690666, 29.698063463912472], [-95.40208998721778, 29.697919682300753], [-95.40186137122865, 29.69725321401923], [-95.40235348367547, 29.697596599235872], [-95.40286109825112, 29.697500182137908], [-95.40285334886191, 29.697720082382315], [-95.4038685773368, 29.697527242478145], [-95.4040817134881, 29.698633507824255], [-95.40470752232285, 29.698760365825986], [-95.4038027249269, 29.699396394619715]], [[-95.39499102276243, 29.69904940564857], [-95.39486120288332, 29.69915596502402], [-95.3948650862611, 29.699046015175746], [-95.39499102276243, 29.69904940564857]], [[-95.37522690396398, 29.698295752885738], [-95.37509315969231, 29.698512242420865], [-95.3751009690536, 29.69829234383123], [-95.37522690396398, 29.698295752885738]], [[-95.28857769703794, 29.696142236659096], [-95.28832583841634, 29.696135255505645], [-95.28833383484879, 29.695915361889366], [-95.28845976388376, 29.695918852517977], [-95.28857769703794, 29.696142236659096]], [[-95.40179548217397, 29.69912236530947], [-95.40155136086898, 29.6988956969513], [-95.40156298928929, 29.698565846793898], [-95.40181486155863, 29.69857261502815], [-95.40179548217397, 29.69912236530947]], [[-95.39436910815616, 29.6988125524224], [-95.39423928792843, 29.698919111201736], [-95.39424317196828, 29.698809161364647], [-95.39436910815616, 29.6988125524224]], [[-95.3588554363786, 29.697851583028157], [-95.35872558024055, 29.697958107413662], [-95.35872950256619, 29.697848158581877], [-95.3588554363786, 29.697851583028157]], [[-95.40508145943528, 29.69888045928183], [-95.4049477778338, 29.69909697858144], [-95.4049555228075, 29.69887707829526], [-95.40508145943528, 29.69888045928183]], [[-95.39588422533092, 29.698743285993615], [-95.39575440677599, 29.69884984624315], [-95.39575828917823, 29.69873989636023], [-95.39588422533092, 29.698743285993615]], [[-95.28833383484879, 29.695915361889366], [-95.28734639923938, 29.69533769864655], [-95.28736239617194, 29.694897911426228], [-95.28686268503576, 29.694773997272254], [-95.28650890315488, 29.694103839729003], [-95.28689068307585, 29.69400436959038], [-95.28786610720077, 29.69491187688735], [-95.28833383484879, 29.695915361889366]], [[-95.40835968349879, 29.69885837313036], [-95.40822600889267, 29.699074895702314], [-95.40823374678956, 29.698854995225766], [-95.40835968349879, 29.69885837313036]], [[-95.3591190697331, 29.697528585018283], [-95.35885935856001, 29.697741634189526], [-95.35886720289741, 29.697521736502427], [-95.3591190697331, 29.697528585018283]], [[-95.40194854912964, 29.698356098825162], [-95.40181486155863, 29.69857261502815], [-95.40182261325396, 29.698352714892742], [-95.40194854912964, 29.698356098825162]], [[-95.39615162555738, 29.698310265298176], [-95.39589587208008, 29.698413436314528], [-95.39589975431305, 29.698303486414975], [-95.39615162555738, 29.698310265298176]], [[-95.38103941029708, 29.6979026940352], [-95.38090957728906, 29.698009239921575], [-95.3809134756782, 29.697899290444848], [-95.38103941029708, 29.6979026940352]], [[-95.40208998721778, 29.697919682300753], [-95.40195630051996, 29.69813619866957], [-95.4019640518768, 29.697916298500846], [-95.40208998721778, 29.697919682300753]], [[-95.33496764370446, 29.696099330718496], [-95.33470788568115, 29.69631233314173], [-95.33471578203034, 29.696092436789055], [-95.33496764370446, 29.696099330718496]], [[-95.35889073570651, 29.696862043362607], [-95.35839877331429, 29.696518498425064], [-95.35878441423617, 29.696308874593434], [-95.35880010298003, 29.69586907905048], [-95.359311671741, 29.695662878047525], [-95.35953608444137, 29.696439368093273], [-95.35903235613263, 29.69642567215201], [-95.35889073570651, 29.696862043362607]], [[-95.39604898233823, 29.697647176428397], [-95.39591916535217, 29.69775373686805], [-95.39592304753486, 29.697643786948852], [-95.39604898233823, 29.697647176428397]], [[-95.37200340318306, 29.69677773899669], [-95.37186965405502, 29.696994225399372], [-95.37187747025678, 29.69677432691023], [-95.37200340318306, 29.69677773899669]], [[-95.37440784647823, 29.696512698171997], [-95.37427800830713, 29.696619237669594], [-95.37428191379904, 29.696509288345766], [-95.37440784647823, 29.696512698171997]], [[-95.39493886884635, 29.69695696743661], [-95.39480905157868, 29.697063526819647], [-95.39481293493299, 29.69695357691275], [-95.39493886884635, 29.69695696743661]], [[-95.35957529798634, 29.695339878955664], [-95.35931951494224, 29.695442980214743], [-95.35932343653016, 29.695333031293462], [-95.35957529798634, 29.695339878955664]], [[-95.28591127561475, 29.693206801793696], [-95.28552949772602, 29.693306269161326], [-95.28553349885284, 29.69319632235721], [-95.28591127561475, 29.693206801793696]], [[-95.28554150108059, 29.692976428739158], [-95.2854075732828, 29.69319282897493], [-95.28541557578203, 29.6929729353642], [-95.28554150108059, 29.692976428739158]], [[-95.40341520088187, 29.696084361163877], [-95.40328151940807, 29.696300878958738], [-95.40328926776529, 29.696080978608148], [-95.40341520088187, 29.696084361163877]], [[-95.28541957701869, 29.692862988553937], [-95.28528965049209, 29.692969441870844], [-95.2852936518645, 29.692859495064244], [-95.28541957701869, 29.692862988553937]], [[-95.34843829570474, 29.693055624100975], [-95.34830843478882, 29.693162138520936], [-95.34831236817026, 29.693052189856676], [-95.34843829570474, 29.693055624100975]], [[-95.34818644064426, 29.693048755493955], [-95.3480762476536, 29.692605526351965], [-95.34745448147822, 29.692368454928474], [-95.34795818817155, 29.692382194424074], [-95.34836743461919, 29.69151290821514], [-95.34802112682104, 29.69062301521349], [-95.34853269105511, 29.690416855096295], [-95.34868221259954, 29.689760596570842], [-95.34905998306255, 29.6897708979149], [-95.34940629703718, 29.690660788426804], [-95.34875307723215, 29.691303312991025], [-95.34872161428726, 29.692182902716823], [-95.34818644064426, 29.693048755493955]], [[-95.28322899384186, 29.690711098862934], [-95.28309506411041, 29.690927496913815], [-95.2831030714221, 29.690707603311772], [-95.28322899384186, 29.690711098862934]], [[-95.35430558287676, 29.691124442912457], [-95.3540537321943, 29.691117585333796], [-95.35406551347877, 29.690787738651395], [-95.35431736334681, 29.69079459620855], [-95.35430558287676, 29.691124442912457]], [[-95.35635571119117, 29.690189745777708], [-95.35622193746751, 29.690406216926508], [-95.3562297869318, 29.690186318974092], [-95.35635571119117, 29.690189745777708]], [[-95.35648948434645, 29.68997327448321], [-95.35635963577488, 29.690079796793047], [-95.35636356035012, 29.689969847805152], [-95.35648948434645, 29.68997327448321]], [[-95.2782305465811, 29.6860598684888], [-95.27772688063047, 29.68604586675947], [-95.27727133188537, 29.68471250176496], [-95.27800677632894, 29.6852832402971], [-95.2782305465811, 29.6860598684888]], [[-95.32134687691345, 29.682298887746786], [-95.321217001392, 29.682405376195433], [-95.32122096358755, 29.682295428022886], [-95.32134687691345, 29.682298887746786]], [[-95.317514959129, 29.680212515560704], [-95.31676742937839, 29.679971837605333], [-95.3167793300572, 29.679641993266824], [-95.31741284582317, 29.679549363456196], [-95.317514959129, 29.680212515560704]]]}}]}